0 UNHA 3 R/B
1 39027U 12072B   13281.72242240  .00001290  00000-0  82693-4 0  3922
2 39027 097.3691 325.0336 0068414 222.6590 136.9316 15.08374098 45316
0 UNHA 3 R/B
1 39027U 12072B   13283.11553848  .00001643  00000-0  10414-3 0  3930
2 39027 097.3688 326.3704 0068551 217.8555 141.7843 15.08384094 45523
0 UNHA 3 R/B
1 39027U 12072B   13284.17695548  .00002050  00000-0  12897-3 0  3942
2 39027 097.3692 327.3887 0068479 214.1699 145.5114 15.08385467 45684
0 UNHA 3 R/B
1 39027U 12072B   13285.23837015  .00001889  00000-0  11910-3 0  3952
2 39027 097.3689 328.4075 0068607 210.5651 149.1572 15.08387725 45847
0 UNHA 3 R/B
1 39027U 12072B   13286.69781238  .00002729  00000-0  17020-3 0  3961
2 39027 097.3686 329.8080 0068745 205.6054 154.1765 15.08390633 46067
0 UNHA 3 R/B
1 39027U 12072B   13288.09091350  .00004744  00000-0  29267-3 0  3972
2 39027 097.3683 331.1450 0068845 200.8431 158.9989 15.08399322 46275
0 UNHA 3 R/B
1 39027U 12072B   13289.68301979  .00004208  00000-0  25992-3 0  3986
2 39027 097.3681 332.6727 0068979 195.3277 164.5863 15.08410547 46514
0 UNHA 3 R/B
1 39027U 12072B   13291.14244019  .00003596  00000-0  22259-3 0  3994
2 39027 097.3680 334.0730 0069083 190.2377 169.7449 15.08422862 46739
0 UNHA 3 R/B
1 39027U 12072B   13292.60184992  .00003239  00000-0  20083-3 0  4009
2 39027 097.3676 335.4733 0069254 185.1048 174.9483 15.08432647 46952
0 UNHA 3 R/B
1 39027U 12072B   13293.72956879  .00003204  00000-0  19861-3 0  4019
2 39027 097.3673 336.5551 0069377 181.1729 178.9349 15.08438983 47121
0 UNHA 3 R/B
1 39027U 12072B   13295.12262644  .00003359  00000-0  20790-3 0  4020
2 39027 097.3670 337.8916 0069530 176.3787 183.7960 15.08446296 47330
